{
  "type": "FeatureCollection",
  "features": [
    {
      "type": "Feature",
      "properties": {
        "norad_id": 30663,
        "name": "FENGYUN 1C DEB",
        "group": "fengyun-1c-debris",
        "lat": 60.15489732314588,
        "lon": 101.30115400727831,
        "alt_km": 692.9428659903215,
        "timestamp": "2025-12-13T20:38:51.283085+00:00",
        "meta_object_name": "FENGYUN 1C DEB",
        "meta_object_id": "1999-025APV",
        "meta_epoch": "2025-12-13T05:33:01.881792",
        "meta_mean_motion": 13.23136003,
        "meta_eccentricity": 0.06480528,
        "meta_inclination": 99.3027,
        "meta_ra_of_asc_node": 264.1374,
        "meta_arg_of_pericenter": 135.391,
        "meta_mean_anomaly": 230.1283,
        "meta_ephemeris_type": 0,
        "meta_classification_type": "U",
        "meta_norad_cat_id": 30663,
        "meta_element_set_no": 999,
        "meta_rev_at_epoch": 89054,
        "meta_bstar": 0.0023526404,
        "meta_mean_motion_dot": 3.038e-05,
        "meta_mean_motion_ddot": 0,
        "tle_line1": "1 30663U 99025APV 25347.23127178  .00003038  00000+0  23526-2 0  9998",
        "tle_line2": "2 30663  99.3027 264.1374 0648052 135.3910 230.1283 13.23136003890541"
      },
      "geometry": {
        "type": "Point",
        "coordinates": [
          101.30115400727831,
          60.15489732314588
        ]
      }
    },
    {
      "type": "Feature",
      "properties": {
        "norad_id": 30665,
        "name": "FENGYUN 1C DEB",
        "group": "fengyun-1c-debris",
        "lat": -34.288317182599506,
        "lon": -34.15906370433679,
        "alt_km": 885.9402812973185,
        "timestamp": "2025-12-13T20:38:51.283095+00:00",
        "meta_object_name": "FENGYUN 1C DEB",
        "meta_object_id": "1999-025APX",
        "meta_epoch": "2025-12-12T21:16:18.384960",
        "meta_mean_motion": 14.12342433,
        "meta_eccentricity": 0.00676371,
        "meta_inclination": 99.2082,
        "meta_ra_of_asc_node": 318.4904,
        "meta_arg_of_pericenter": 202.1197,
        "meta_mean_anomaly": 213.0695,
        "meta_ephemeris_type": 0,
        "meta_classification_type": "U",
        "meta_norad_cat_id": 30665,
        "meta_element_set_no": 999,
        "meta_rev_at_epoch": 95972,
        "meta_bstar": 0.0022945687,
        "meta_mean_motion_dot": 4.274e-05,
        "meta_mean_motion_ddot": 0,
        "tle_line1": "1 30665U 99025APX 25346.88632390  .00004274  00000+0  22946-2 0  9995",
        "tle_line2": "2 30665  99.2082 318.4904 0067637 202.1197 213.0695 14.12342433959727"
      },
      "geometry": {
        "type": "Point",
        "coordinates": [
          -34.15906370433679,
          -34.288317182599506
        ]
      }
    },
    {
      "type": "Feature",
      "properties": {
        "norad_id": 30666,
        "name": "FENGYUN 1C DEB",
        "group": "fengyun-1c-debris",
        "lat": 79.8207913783763,
        "lon": -148.6815862452892,
        "alt_km": 846.4403972984492,
        "timestamp": "2025-12-13T20:38:51.283105+00:00",
        "meta_object_name": "FENGYUN 1C DEB",
        "meta_object_id": "1999-025APY",
        "meta_epoch": "2025-12-13T04:51:49.987296",
        "meta_mean_motion": 14.02555777,
        "meta_eccentricity": 0.00611864,
        "meta_inclination": 98.8223,
        "meta_ra_of_asc_node": 330.8052,
        "meta_arg_of_pericenter": 142.7497,
        "meta_mean_anomaly": 234.038,
        "meta_ephemeris_type": 0,
        "meta_classification_type": "U",
        "meta_norad_cat_id": 30666,
        "meta_element_set_no": 999,
        "meta_rev_at_epoch": 96117,
        "meta_bstar": 0.00029614016,
        "meta_mean_motion_dot": 4.21e-06,
        "meta_mean_motion_ddot": 0,
        "tle_line1": "1 30666U 99025APY 25347.20266189  .00000421  00000+0  29614-3 0  9992",
        "tle_line2": "2 30666  98.8223 330.8052 0061186 142.7497 234.0380 14.02555777961179"
      },
      "geometry": {
        "type": "Point",
        "coordinates": [
          -148.6815862452892,
          79.8207913783763
        ]
      }
    },
    {
      "type": "Feature",
      "properties": {
        "norad_id": 30668,
        "name": "FENGYUN 1C DEB",
        "group": "fengyun-1c-debris",
        "lat": 55.255028423729904,
        "lon": 47.53106007100761,
        "alt_km": 902.9134910247521,
        "timestamp": "2025-12-13T20:38:51.283115+00:00",
        "meta_object_name": "FENGYUN 1C DEB",
        "meta_object_id": "1999-025AQA",
        "meta_epoch": "2025-12-13T03:40:01.698816",
        "meta_mean_motion": 14.12332649,
        "meta_eccentricity": 0.00791453,
        "meta_inclination": 99.1304,
        "meta_ra_of_asc_node": 60.2174,
        "meta_arg_of_pericenter": 244.9066,
        "meta_mean_anomaly": 176.0532,
        "meta_ephemeris_type": 0,
        "meta_classification_type": "U",
        "meta_norad_cat_id": 30668,
        "meta_element_set_no": 999,
        "meta_rev_at_epoch": 96061,
        "meta_bstar": 0.0027317509,
        "meta_mean_motion_dot": 5.139e-05,
        "meta_mean_motion_ddot": 0,
        "tle_line1": "1 30668U 99025AQA 25347.15279744  .00005139  00000+0  27318-2 0  9998",
        "tle_line2": "2 30668  99.1304  60.2174 0079145 244.9066 176.0532 14.12332649960619"
      },
      "geometry": {
        "type": "Point",
        "coordinates": [
          47.53106007100761,
          55.255028423729904
        ]
      }
    },
    {
      "type": "Feature",
      "properties": {
        "norad_id": 30669,
        "name": "FENGYUN 1C DEB",
        "group": "fengyun-1c-debris",
        "lat": 70.29072827174657,
        "lon": -100.62065952546776,
        "alt_km": 893.1090888446861,
        "timestamp": "2025-12-13T20:38:51.283126+00:00",
        "meta_object_name": "FENGYUN 1C DEB",
        "meta_object_id": "1999-025AQB",
        "meta_epoch": "2025-12-13T07:19:53.408064",
        "meta_mean_motion": 14.0272861,
        "meta_eccentricity": 0.01177758,
        "meta_inclination": 98.6333,
        "meta_ra_of_asc_node": 283.9466,
        "meta_arg_of_pericenter": 174.9688,
        "meta_mean_anomaly": 338.3339,
        "meta_ephemeris_type": 0,
        "meta_classification_type": "U",
        "meta_norad_cat_id": 30669,
        "meta_element_set_no": 999,
        "meta_rev_at_epoch": 95461,
        "meta_bstar": 0.0017923363,
        "meta_mean_motion_dot": 2.904e-05,
        "meta_mean_motion_ddot": 0,
        "tle_line1": "1 30669U 99025AQB 25347.30547926  .00002904  00000+0  17923-2 0  9994",
        "tle_line2": "2 30669  98.6333 283.9466 0117775 174.9688 338.3339 14.02728610954615"
      },
      "geometry": {
        "type": "Point",
        "coordinates": [
          -100.62065952546776,
          70.29072827174657
        ]
      }
    },
    {
      "type": "Feature",
      "properties": {
        "norad_id": 30670,
        "name": "FENGYUN 1C DEB",
        "group": "fengyun-1c-debris",
        "lat": 48.95113527078552,
        "lon": 22.123750029010353,
        "alt_km": 807.4652596653032,
        "timestamp": "2025-12-13T20:38:51.283136+00:00",
        "meta_object_name": "FENGYUN 1C DEB",
        "meta_object_id": "1999-025AQC",
        "meta_epoch": "2025-12-13T01:53:53.613600",
        "meta_mean_motion": 14.15817501,
        "meta_eccentricity": 0.00398978,
        "meta_inclination": 98.711,
        "meta_ra_of_asc_node": 31.5008,
        "meta_arg_of_pericenter": 68.7032,
        "meta_mean_anomaly": 321.6088,
        "meta_ephemeris_type": 0,
        "meta_classification_type": "U",
        "meta_norad_cat_id": 30670,
        "meta_element_set_no": 999,
        "meta_rev_at_epoch": 97157,
        "meta_bstar": 0.00012802699,
        "meta_mean_motion_dot": 2.11e-06,
        "meta_mean_motion_ddot": 0,
        "tle_line1": "1 30670U 99025AQC 25347.07909275  .00000211  00000+0  12803-3 0  9991",
        "tle_line2": "2 30670  98.7110  31.5008 0039897  68.7032 321.6088 14.15817501971573"
      },
      "geometry": {
        "type": "Point",
        "coordinates": [
          22.123750029010353,
          48.95113527078552
        ]
      }
    },
    {
      "type": "Feature",
      "properties": {
        "norad_id": 30671,
        "name": "FENGYUN 1C DEB",
        "group": "fengyun-1c-debris",
        "lat": -68.02015812791537,
        "lon": 76.39473356782464,
        "alt_km": 931.8466331552718,
        "timestamp": "2025-12-13T20:38:51.283146+00:00",
        "meta_object_name": "FENGYUN 1C DEB",
        "meta_object_id": "1999-025AQD",
        "meta_epoch": "2025-12-13T04:01:49.776672",
        "meta_mean_motion": 13.95462199,
        "meta_eccentricity": 0.01259819,
        "meta_inclination": 99.2525,
        "meta_ra_of_asc_node": 51.8799,
        "meta_arg_of_pericenter": 32.1237,
        "meta_mean_anomaly": 22.9691,
        "meta_ephemeris_type": 0,
        "meta_classification_type": "U",
        "meta_norad_cat_id": 30671,
        "meta_element_set_no": 999,
        "meta_rev_at_epoch": 95201,
        "meta_bstar": 0.0015953926,
        "meta_mean_motion_dot": 2.269e-05,
        "meta_mean_motion_ddot": 0,
        "tle_line1": "1 30671U 99025AQD 25347.16793723  .00002269  00000+0  15954-2 0  9995",
        "tle_line2": "2 30671  99.2525  51.8799 0125981  32.1237  22.9691 13.95462199952019"
      },
      "geometry": {
        "type": "Point",
        "coordinates": [
          76.39473356782464,
          -68.02015812791537
        ]
      }
    }
  ]
}